{"type": "FeatureCollection", "features": [ {"type": "Feature", "properties": {"norad_id": 66376, "name": "SHIYAN-32 01", "group": "last-30-days", "lat": -32.66270839261168, "lon": -171.44487365721264, "alt_km": 438.3761923167349, "timestamp": "2025-12-04T10:51:48.874754+00:00", "meta": {"OBJECT_NAME": "SHIYAN-32 01", "OBJECT_ID": "2025-255A", "EPOCH": "2025-12-04T03:16:16.027104", "MEAN_MOTION": 15.42333448, "ECCENTRICITY": 0.00135, "INCLINATION": 52.9964, "RA_OF_ASC_NODE": 218.9715, "ARG_OF_PERICENTER": 15.4644, "MEAN_ANOMALY": 344.677, "EPHEMERIS_TYPE": 0, "CLASSIFICATION_TYPE": "U", "NORAD_CAT_ID": 66376, "ELEMENT_SET_NO": 999, "REV_AT_EPOCH": 402, "BSTAR": 0.00088087, "MEAN_MOTION_DOT": 0.00038455, "MEAN_MOTION_DDOT": 0}, "tle": {"line1": "1 66376U 25255A   25338.13629661  .00038455  00000+0  88087-3 0  9990", "line2": "2 66376  52.9964 218.9715 0013500  15.4644 344.6770 15.42333448  4025"}}, "geometry": {"type": "Point", "coordinates": [-171.44487365721264, -32.66270839261168]}}, {"type": "Feature", "properties": {"norad_id": 66377, "name": "CZ-11 DEB", "group": "last-30-days", "lat": 22.396688544882664, "lon": -124.56437014137964, "alt_km": 423.6635991617359, "timestamp": "2025-12-04T10:51:48.874765+00:00", "meta": {"OBJECT_NAME": "CZ-11 DEB", "OBJECT_ID": "2025-255B", "EPOCH": "2025-12-04T02:58:17.997024", "MEAN_MOTION": 15.43632968, "ECCENTRICITY": 0.0013888, "INCLINATION": 52.9959, "RA_OF_ASC_NODE": 218.893, "ARG_OF_PERICENTER": 13.2054, "MEAN_ANOMALY": 346.9311, "EPHEMERIS_TYPE": 0, "CLASSIFICATION_TYPE": "U", "NORAD_CAT_ID": 66377, "ELEMENT_SET_NO": 999, "REV_AT_EPOCH": 388, "BSTAR": 0.0016437, "MEAN_MOTION_DOT": 0.0007574, "MEAN_MOTION_DDOT": 0}, "tle": {"line1": "1 66377U 25255B   25338.12381941  .00075740  00000+0  16437-2 0  9993", "line2": "2 66377  52.9959 218.8930 0013888  13.2054 346.9311 15.43632968  3887"}}, "geometry": {"type": "Point", "coordinates": [-124.56437014137964, 22.396688544882664]}}, {"type": "Feature", "properties": {"norad_id": 66378, "name": "SHIYAN-32 02", "group": "last-30-days", "lat": 43.29180099630301, "lon": -97.4535086864605, "alt_km": 421.9740061291204, "timestamp": "2025-12-04T10:51:48.874775+00:00", "meta": {"OBJECT_NAME": "SHIYAN-32 02", "OBJECT_ID": "2025-255C", "EPOCH": "2025-12-04T02:50:33.627264", "MEAN_MOTION": 15.44217349, "ECCENTRICITY": 0.0012293, "INCLINATION": 52.9956, "RA_OF_ASC_NODE": 218.8609, "ARG_OF_PERICENTER": 11.8683, "MEAN_ANOMALY": 348.2609, "EPHEMERIS_TYPE": 0, "CLASSIFICATION_TYPE": "U", "NORAD_CAT_ID": 66378, "ELEMENT_SET_NO": 999, "REV_AT_EPOCH": 388, "BSTAR": 0.0018449, "MEAN_MOTION_DOT": 0.00086826, "MEAN_MOTION_DDOT": 0}, "tle": {"line1": "1 66378U 25255C   25338.11844476  .00086826  00000+0  18449-2 0  9992", "line2": "2 66378  52.9956 218.8609 0012293  11.8683 348.2609 15.44217349  3887"}}, "geometry": {"type": "Point", "coordinates": [-97.4535086864605, 43.29180099630301]}}, {"type": "Feature", "properties": {"norad_id": 66379, "name": "SHIYAN-32 03", "group": "last-30-days", "lat": -7.6496480797402935, "lon": -148.40912144257362, "alt_km": 430.52158103773854, "timestamp": "2025-12-04T10:51:48.874787+00:00", "meta": {"OBJECT_NAME": "SHIYAN-32 03", "OBJECT_ID": "2025-255D", "EPOCH": "2025-12-04T03:07:50.741760", "MEAN_MOTION": 15.42681096, "ECCENTRICITY": 0.0015529, "INCLINATION": 52.9968, "RA_OF_ASC_NODE": 218.9361, "ARG_OF_PERICENTER": 16.4274, "MEAN_ANOMALY": 343.723, "EPHEMERIS_TYPE": 0, "CLASSIFICATION_TYPE": "U", "NORAD_CAT_ID": 66379, "ELEMENT_SET_NO": 999, "REV_AT_EPOCH": 390, "BSTAR": 0.00080639, "MEAN_MOTION_DOT": 0.00035608, "MEAN_MOTION_DDOT": 0}, "tle": {"line1": "1 66379U 25255D   25338.13044840  .00035608  00000+0  80639-3 0  9995", "line2": "2 66379  52.9968 218.9361 0015529  16.4274 343.7230 15.42681096  3904"}}, "geometry": {"type": "Point", "coordinates": [-148.40912144257362, -7.6496480797402935]}}, {"type": "Feature", "properties": {"norad_id": 66380, "name": "STARLINK-35139", "group": "last-30-days", "lat": -51.01902174771036, "lon": -124.19196291923127, "alt_km": 453.0894375087719, "timestamp": "2025-12-04T10:51:48.874797+00:00", "meta": {"OBJECT_NAME": "STARLINK-35139", "OBJECT_ID": "2025-257A", "EPOCH": "2025-12-04T04:00:03.000096", "MEAN_MOTION": 15.39846557, "ECCENTRICITY": 0.0001487, "INCLINATION": 53.1587, "RA_OF_ASC_NODE": 305.0509, "ARG_OF_PERICENTER": 85.8536, "MEAN_ANOMALY": 51.9777, "EPHEMERIS_TYPE": 0, "CLASSIFICATION_TYPE": "U", "NORAD_CAT_ID": 66380, "ELEMENT_SET_NO": 999, "REV_AT_EPOCH": 505, "BSTAR": -0.011675, "MEAN_MOTION_DOT": -0.0044449, "MEAN_MOTION_DDOT": 0}, "tle": {"line1": "1 66380U 25257A   25338.16670139 -.00444490  00000+0 -11675-1 0  9995", "line2": "2 66380  53.1587 305.0509 0001487  85.8536  51.9777 15.39846557  5050"}}, "geometry": {"type": "Point", "coordinates": [-124.19196291923127, -51.01902174771036]}}, {"type": "Feature", "properties": {"norad_id": 66381, "name": "STARLINK-35158", "group": "last-30-days", "lat": -50.44511992821985, "lon": -121.49837240389856, "alt_km": 452.70408262154524, "timestamp": "2025-12-04T10:51:48.874810+00:00", "meta": {"OBJECT_NAME": "STARLINK-35158", "OBJECT_ID": "2025-257B", "EPOCH": "2025-12-04T04:00:03.000096", "MEAN_MOTION": 15.39763649, "ECCENTRICITY": 9.22e-05, "INCLINATION": 53.1585, "RA_OF_ASC_NODE": 305.0465, "ARG_OF_PERICENTER": 91.8532, "MEAN_ANOMALY": 47.8222, "EPHEMERIS_TYPE": 0, "CLASSIFICATION_TYPE": "U", "NORAD_CAT_ID": 66381, "ELEMENT_SET_NO": 999, "REV_AT_EPOCH": 511, "BSTAR": -0.0079665, "MEAN_MOTION_DOT": -0.00307967, "MEAN_MOTION_DDOT": 0}, "tle": {"line1": "1 66381U 25257B   25338.16670139 -.00307967  00000+0 -79665-2 0  9997", "line2": "2 66381  53.1585 305.0465 0000922  91.8532  47.8222 15.39763649  5112"}}, "geometry": {"type": "Point", "coordinates": [-121.49837240389856, -50.44511992821985]}}, {"type": "Feature", "properties": {"norad_id": 66382, "name": "STARLINK-35639", "group": "last-30-days", "lat": -38.20706843971104, "lon": -92.51677754050216, "alt_km": 452.14821238379045, "timestamp": "2025-12-04T10:51:48.874820+00:00", "meta": {"OBJECT_NAME": "STARLINK-35639", "OBJECT_ID": "2025-257C", "EPOCH": "2025-12-04T04:00:03.000096", "MEAN_MOTION": 15.39785165, "ECCENTRICITY": 0.0001024, "INCLINATION": 53.1593, "RA_OF_ASC_NODE": 304.9976, "ARG_OF_PERICENTER": 86.8228, "MEAN_ANOMALY": 76.7622, "EPHEMERIS_TYPE": 0, "CLASSIFICATION_TYPE": "U", "NORAD_CAT_ID": 66382, "ELEMENT_SET_NO": 999, "REV_AT_EPOCH": 511, "BSTAR": -0.0087518, "MEAN_MOTION_DOT": -0.00337252, "MEAN_MOTION_DDOT": 0}, "tle": {"line1": "1 66382U 25257C   25338.16670139 -.00337252  00000+0 -87518-2 0  9994", "line2": "2 66382  53.1593 304.9976 0001024  86.8228  76.7622 15.39785165  5119"}}, "geometry": {"type": "Point", "coordinates": [-92.51677754050216, -38.20706843971104]}}, {"type": "Feature", "properties": {"norad_id": 66383, "name": "STARLINK-35690", "group": "last-30-days", "lat": -19.68902341211719, "lon": -71.96372347903099, "alt_km": 450.6913054107945, "timestamp": "2025-12-04T10:51:48.874831+00:00", "meta": {"OBJECT_NAME": "STARLINK-35690", "OBJECT_ID": "2025-257D", "EPOCH": "2025-12-04T04:00:03.000096", "MEAN_MOTION": 15.39798812, "ECCENTRICITY": 0.0001537, "INCLINATION": 53.1599, "RA_OF_ASC_NODE": 304.9459, "ARG_OF_PERICENTER": 81.2887, "MEAN_ANOMALY": 108.0482, "EPHEMERIS_TYPE": 0, "CLASSIFICATION_TYPE": "U", "NORAD_CAT_ID": 66383, "ELEMENT_SET_NO": 999, "REV_AT_EPOCH": 511, "BSTAR": -0.0093067, "MEAN_MOTION_DOT": -0.00357842, "MEAN_MOTION_DDOT": 0}, "tle": {"line1": "1 66383U 25257D   25338.16670139 -.00357842  00000+0 -93067-2 0  9998", "line2": "2 66383  53.1599 304.9459 0001537  81.2887 108.0482 15.39798812  5117"}}, "geometry": {"type": "Point", "coordinates": [-71.96372347903099, -19.68902341211719]}}, {"type": "Feature", "properties": {"norad_id": 66384, "name": "STARLINK-35662", "group": "last-30-days", "lat": -18.27680019751372, "lon": -70.74091220629089, "alt_km": 450.45954992335373, "timestamp": "2025-12-04T10:51:48.874843+00:00", "meta": {"OBJECT_NAME": "STARLINK-35662", "OBJECT_ID": "2025-257E", "EPOCH": "2025-12-04T04:00:03.000096", "MEAN_MOTION": 15.39804903, "ECCENTRICITY": 0.0001679, "INCLINATION": 53.1595, "RA_OF_ASC_NODE": 304.9433, "ARG_OF_PERICENTER": 75.8113, "MEAN_ANOMALY": 115.3535, "EPHEMERIS_TYPE": 0, "CLASSIFICATION_TYPE": "U", "NORAD_CAT_ID": 66384, "ELEMENT_SET_NO": 999, "REV_AT_EPOCH": 511, "BSTAR": -0.0096632, "MEAN_MOTION_DOT": -0.00370988, "MEAN_MOTION_DDOT": 0}, "tle": {"line1": "1 66384U 25257E   25338.16670139 -.00370988  00000+0 -96632-2 0  9996", "line2": "2 66384  53.1595 304.9433 0001679  75.8113 115.3535 15.39804903  5113"}}, "geometry": {"type": "Point", "coordinates": [-70.74091220629089, -18.27680019751372]}}, {"type": "Feature", "properties": {"norad_id": 66385, "name": "STARLINK-35659", "group": "last-30-days", "lat": -37.00066268989043, "lon": -90.75398650433347, "alt_km": 451.9519547501104, "timestamp": "2025-12-04T10:51:48.874853+00:00", "meta": {"OBJECT_NAME": "STARLINK-35659", "OBJECT_ID": "2025-257F", "EPOCH": "2025-12-04T04:00:03.000096", "MEAN_MOTION": 15.39828231, "ECCENTRICITY": 0.0001108, "INCLINATION": 53.1594, "RA_OF_ASC_NODE": 304.9947, "ARG_OF_PERICENTER": 70.5219, "MEAN_ANOMALY": 94.8941, "EPHEMERIS_TYPE": 0, "CLASSIFICATION_TYPE": "U", "NORAD_CAT_ID": 66385, "ELEMENT_SET_NO": 999, "REV_AT_EPOCH": 511, "BSTAR": -0.010659, "MEAN_MOTION_DOT": -0.0040754, "MEAN_MOTION_DDOT": 0}, "tle": {"line1": "1 66385U 25257F   25338.16670139 -.00407540  00000+0 -10659-1 0  9996", "line2": "2 66385  53.1594 304.9947 0001108  70.5219  94.8941 15.39828231  5111"}}, "geometry": {"type": "Point", "coordinates": [-90.75398650433347, -37.00066268989043]}}]}